     2.10           NAVIGATION DATA                         RINEX VERSION / TYPE
GS10 V12.00                             2023 11 30 23:59    PGM / RUN BY / DATE 
    2.7940D-08  7.4506D-09 -1.1921D-07  1.1921D-07          ION ALPHA           
    1.4541D+05 -1.8022D+05  0.0000D+00  1.3107D+05          ION BETA            
   -9.313225746155D-10-8.881784197001D-16    61440     2291 DELTA-UTC: A0,A1,T,W
    18                                                      LEAP SECONDS        
                                                            END OF HEADER       
16 23 12 01 00 00  0.0-4.125759005547D-04 6.934897101019D-12 0.000000000000D+00
    2.700000000000D+01 3.621875000000D+01 4.399468969827D-09 2.321118943121D+00
    1.795589923859D-06 1.372678228654D-02 9.920448064804D-06 5.153695341110D+03
    4.320000000000D+05-1.341104507446D-07-3.013803796957D+00-3.017485141754D-07
    9.638017487714D-01 1.900312500000D+02 8.048309527368D-01-7.588530378464D-09
   -3.896590880079D-10 1.000000000000D+00 2.290000000000D+03 0.000000000000D+00
    2.000000000000D+00 0.000000000000D+00-1.024454832077D-08 2.700000000000D+01
    4.248000000000D+05 0.000000000000D+00
17 23 11 29 08 00  0.0 7.227254100144D-04-4.547473508865D-13 0.000000000000D+00
    8.200000000000D+01 1.167500000000D+02 4.356252883990D-09-7.922246628800D-01
    6.122514605522D-06 1.382852380630D-02 4.196539521217D-06 5.153624958038D+03
    2.880000000000D+05-1.862645149231D-07-1.991605399868D+00 8.940696716309D-08
    9.715334434447D-01 3.124687500000D+02-1.368980940717D+00-8.266058600234D-09
    3.600149960697D-10 1.000000000000D+00 2.290000000000D+03 0.000000000000D+00
    2.800000000000D+00 0.000000000000D+00-1.117587089539D-08 8.200000000000D+01
    2.808000000000D+05 0.000000000000D+00
18 23 12 01 00 00  0.0-4.939935170114D-04-1.045918907039D-11 0.000000000000D+00
    2.600000000000D+01 1.468750000000D+00 4.344823836495D-09-7.433259619157D-01
   -1.862645149231D-09 3.833896247670D-03 8.046627044678D-07 5.153644771576D+03
    4.320000000000D+05 5.587935447693D-08-9.880719429910D-01-7.078051567078D-08
    9.742792806998D-01 3.721875000000D+02-3.029321911143D+00-8.269987335310D-09
   -9.321816862518D-11 1.000000000000D+00 2.290000000000D+03 0.000000000000D+00
    2.000000000000D+00 0.000000000000D+00-8.381903171539D-09 2.820000000000D+02
    4.248000000000D+05 0.000000000000D+00
19 23 11 30 17 59 44.0 4.061120562255D-04 5.229594535194D-12 0.000000000000D+00
    3.700000000000D+01 1.271562500000D+02 4.225533153274D-09 2.586921049360D-01
    6.400048732758D-06 9.366852464154D-03 6.232410669327D-06 5.153670753479D+03
    4.103840000000D+05 9.685754776001D-08-1.948136453943D+00-1.359730958939D-07
    9.706582746476D-01 2.694375000000D+02 2.453039662651D+00-8.090694152744D-09
   -2.892977646988D-11 1.000000000000D+00 2.290000000000D+03 0.000000000000D+00
    2.000000000000D+00 0.000000000000D+00-1.536682248116D-08 3.700000000000D+01
    4.056900000000D+05 0.000000000000D+00
20 23 11 30 22 00  0.0 3.989553079009D-04-1.932676241267D-12 0.000000000000D+00
    1.800000000000D+01-1.155625000000D+02 4.578762152394D-09-1.085635412615D+00
   -5.992129445076D-06 4.076695418917D-03 4.915520548820D-06 5.153668218613D+03
    4.248000000000D+05 9.872019290924D-08-1.320585732268D-01-5.029141902924D-08
    9.516125105265D-01 2.801250000000D+02-2.744280433815D+00-8.173911904812D-09
   -1.285767843106D-10 1.000000000000D+00 2.290000000000D+03 0.000000000000D+00
    2.000000000000D+00 0.000000000000D+00-8.381903171539D-09 1.800000000000D+01
    4.176000000000D+05 0.000000000000D+00
21 23 12 01 00 00  0.0 1.428360119462D-04-1.023181539495D-12 0.000000000000D+00
    8.600000000000D+01 3.243750000000D+01 4.615549399016D-09 1.326300569079D+00
    1.395121216774D-06 2.498050208669D-02 5.215406417847D-08 5.153751993179D+03
    4.320000000000D+05 4.433095455170D-07-1.095240812765D+00 1.434236764908D-07
    9.617258665540D-01 3.675000000000D+02-6.772900241452D-01-8.277844805463D-09
   -2.407243128482D-10 1.000000000000D+00 2.290000000000D+03 0.000000000000D+00
    2.000000000000D+00 0.000000000000D+00-1.024454832077D-08 8.600000000000D+01
    4.260000000000D+05 0.000000000000D+00
22 23 11 29 12 00  0.0 7.511582225561D-05-6.934897101019D-12 0.000000000000D+00
    9.500000000000D+01 6.003125000000D+01 4.079812797722D-09 1.845791941283D+00
    3.114342689514D-06 1.493158203084D-02 1.025386154652D-05 5.153728313446D+03
    3.024000000000D+05 3.147870302200D-07-3.009507702487D+00 5.960464477539D-08
    9.631458377473D-01 1.775000000000D+02-1.160382524304D+00-7.432809606355D-09
   -4.618049503155D-10 1.000000000000D+00 2.290000000000D+03 0.000000000000D+00
    2.000000000000D+00 0.000000000000D+00-1.117587089539D-08 9.500000000000D+01
    2.952000000000D+05 0.000000000000D+00
23 23 12 01 00 00  0.0 1.080241054296D-04 6.707523425575D-12 0.000000000000D+00
    7.100000000000D+01-1.278750000000D+02 3.858732160254D-09-1.754965070437D+00
   -6.530433893204D-06 3.886468010023D-03 6.623566150665D-06 5.153702079773D+03
    4.320000000000D+05-6.519258022308D-08 1.183493411537D-02-2.421438694000D-08
    9.769725991959D-01 2.604687500000D+02-3.025251550784D+00-7.763180510486D-09
   -8.107480566251D-11 1.000000000000D+00 2.290000000000D+03 0.000000000000D+00
    2.000000000000D+00 0.000000000000D+00-8.381903171539D-09 5.830000000000D+02
    4.248000000000D+05 0.000000000000D+00
24 23 11 30 18 00  0.0-3.832350485027D-04-8.526512829121D-12 0.000000000000D+00
    6.700000000000D+01-2.187500000000D+00 5.406653780260D-09 2.648872433541D+00
   -2.700835466385D-07 1.492519292515D-02 5.936250090599D-06 5.153618034363D+03
    4.104000000000D+05 3.725290298462D-09 2.042574410794D+00-2.346932888031D-07
    9.335345939887D-01 2.495625000000D+02 9.477142668690D-01-8.046763751438D-09
    1.228622605635D-10 1.000000000000D+00 2.290000000000D+03 0.000000000000D+00
    2.000000000000D+00 0.000000000000D+00 2.328306436539D-09 6.700000000000D+01
    4.056900000000D+05 0.000000000000D+00
25 23 11 30 22 00  0.0 4.796343855560D-04 1.591615728103D-12 0.000000000000D+00
    5.200000000000D+01 3.143750000000D+01 4.611263506206D-09 2.867218713454D+00
    1.477077603340D-06 1.151875546202D-02 9.382143616676D-06 5.153646825790D+03
    4.248000000000D+05 3.539025783539D-08-3.116251107407D+00-2.048909664154D-07
    9.520147720366D-01 1.915937500000D+02 1.058199487079D+00-7.676034023342D-09
   -4.714482091388D-10 1.000000000000D+00 2.290000000000D+03 0.000000000000D+00
    2.000000000000D+00 0.000000000000D+00 5.587935447693D-09 5.200000000000D+01
    4.176000000000D+05 0.000000000000D+00
26 23 12 01 00 00  0.0 2.127951011062D-04-2.842170943040D-12 0.000000000000D+00
    2.600000000000D+01 2.062500000000D+01 5.144142845626D-09 3.106899678614D+00
    1.063570380211D-06 8.612947072834D-03 9.128823876381D-06 5.153791168213D+03
    4.320000000000D+05-7.823109626770D-08 3.107757656661D+00-1.024454832077D-07
    9.327571437305D-01 1.907187500000D+02 5.021690543168D-01-7.964617472573D-09
   -4.207318108830D-10 1.000000000000D+00 2.290000000000D+03 0.000000000000D+00
    2.000000000000D+00 0.000000000000D+00 6.984919309616D-09 2.600000000000D+01
    4.248000000000D+05 0.000000000000D+00
27 23 12 01 00 00  0.0-7.711630314589D-05-5.002220859751D-12 0.000000000000D+00
    4.900000000000D+01 1.232812500000D+02 4.373039297497D-09 1.421258112008D+00
    6.506219506264D-06 1.189586229157D-02 7.642433047295D-06 5.153678125381D+03
    4.320000000000D+05-1.937150955200D-07-2.059769595249D+00 1.769512891769D-07
    9.648614734618D-01 2.342187500000D+02 7.425118801888D-01-8.106766250783D-09
   -6.393123442110D-11 1.000000000000D+00 2.290000000000D+03 0.000000000000D+00
    2.000000000000D+00 0.000000000000D+00 1.862645149231D-09 4.900000000000D+01
    4.248000000000D+05 0.000000000000D+00
28 23 11 30 22 00  0.0-5.857041105628D-05-9.322320693173D-12 0.000000000000D+00
    8.700000000000D+01-3.343750000000D+00 4.856988027333D-09 2.199390182206D+00
   -1.974403858185D-07 7.558403303847D-04 6.301328539848D-06 5.153532108307D+03
    4.248000000000D+05 7.450580596924D-09 2.101241982763D+00-1.117587089539D-08
    9.610628691547D-01 2.610312500000D+02 1.683376871404D+00-7.963188841636D-09
    1.228622605635D-10 1.000000000000D+00 2.290000000000D+03 0.000000000000D+00
    2.800000000000D+00 0.000000000000D+00-9.313225746155D-09 3.430000000000D+02
    4.176000000000D+05 0.000000000000D+00
29 23 12 01 00 00  0.0-6.100395694375D-04 2.273736754432D-13 0.000000000000D+00
    2.100000000000D+01 1.279687500000D+02 4.093741949356D-09 1.251234814815D+00
    6.541609764099D-06 2.516387845390D-03 6.334856152534D-06 5.153686061859D+03
    4.320000000000D+05 1.490116119385D-08-1.978185050228D+00-3.352761268616D-08
    9.738846921951D-01 2.615000000000D+02 2.564417058081D+00-7.868899199808D-09
    7.500312418118D-12 1.000000000000D+00 2.290000000000D+03 0.000000000000D+00
    2.000000000000D+00 0.000000000000D+00-1.024454832077D-08 2.100000000000D+01
    4.248000000000D+05 0.000000000000D+00
30 23 12 01 00 00  0.0-4.625208675861D-04 4.206412995700D-12 0.000000000000D+00
    3.600000000000D+01 4.375000000000D-01 5.333793602484D-09-1.618067622097D+00
   -1.378357410431D-07 6.605608854443D-03 5.656853318214D-06 5.153719934464D+03
    4.320000000000D+05 8.195638656616D-08 2.139643415571D+00-5.774199962616D-08
    9.350891638856D-01 2.528437500000D+02-2.552908176221D+00-8.261058391955D-09
    1.628639267934D-10 1.000000000000D+00 2.290000000000D+03 0.000000000000D+00
    2.000000000000D+00 0.000000000000D+00 3.725290298462D-09 3.600000000000D+01
    4.281300000000D+05 0.000000000000D+00
